CCSDS_OMM_VERS = 2.0
CREATION_DATE  = 
ORIGINATOR     = 

OBJECT_NAME    = CORAL
OBJECT_ID      = 1998-067YB
CENTER_NAME    = EARTH
REF_FRAME      = TEME
TIME_SYSTEM    = UTC
MEAN_ELEMENT_THEORY = SGP/SGP4

EPOCH          = 2026-03-02T09:09:48.620736
MEAN_MOTION    = 15.51449802
ECCENTRICITY   = .00115824
INCLINATION    = 51.6315
RA_OF_ASC_NODE = 108.1094
ARG_OF_PERICENTER = 157.7573
MEAN_ANOMALY   = 202.3921

EPHEMERIS_TYPE = 0
CLASSIFICATION_TYPE = U
NORAD_CAT_ID   = 67685
ELEMENT_SET_NO = 999
REV_AT_EPOCH   = 365
BSTAR          = .77682183E-3
MEAN_MOTION_DOT = .46607E-3
MEAN_MOTION_DDOT = 0

CCSDS_OMM_VERS = 2.0
CREATION_DATE  = 
ORIGINATOR     = 

OBJECT_NAME    = ISS OBJECT YC
OBJECT_ID      = 1998-067YC
CENTER_NAME    = EARTH
REF_FRAME      = TEME
TIME_SYSTEM    = UTC
MEAN_ELEMENT_THEORY = SGP/SGP4

EPOCH          = 2026-03-02T09:04:58.356480
MEAN_MOTION    = 15.51837466
ECCENTRICITY   = .00077178
INCLINATION    = 51.6316
RA_OF_ASC_NODE = 108.0894
ARG_OF_PERICENTER = 125.5885
MEAN_ANOMALY   = 234.5825

EPHEMERIS_TYPE = 0
CLASSIFICATION_TYPE = U
NORAD_CAT_ID   = 67686
ELEMENT_SET_NO = 999
REV_AT_EPOCH   = 365
BSTAR          = .85444662E-3
MEAN_MOTION_DOT = .51991E-3
MEAN_MOTION_DDOT = 0

CCSDS_OMM_VERS = 2.0
CREATION_DATE  = 
ORIGINATOR     = 

OBJECT_NAME    = LEOPARD
OBJECT_ID      = 1998-067YD
CENTER_NAME    = EARTH
REF_FRAME      = TEME
TIME_SYSTEM    = UTC
MEAN_ELEMENT_THEORY = SGP/SGP4

EPOCH          = 2026-03-02T15:22:46.244928
MEAN_MOTION    = 15.51318584
ECCENTRICITY   = .0007695
INCLINATION    = 51.6316
RA_OF_ASC_NODE = 106.8408
ARG_OF_PERICENTER = 130.3148
MEAN_ANOMALY   = 229.8515

EPHEMERIS_TYPE = 0
CLASSIFICATION_TYPE = U
NORAD_CAT_ID   = 67687
ELEMENT_SET_NO = 999
REV_AT_EPOCH   = 361
BSTAR          = .69517E-3
MEAN_MOTION_DOT = .41373E-3
MEAN_MOTION_DDOT = 0

CCSDS_OMM_VERS = 2.0
CREATION_DATE  = 
ORIGINATOR     = 

OBJECT_NAME    = ISS OBJECT YE
OBJECT_ID      = 1998-067YE
CENTER_NAME    = EARTH
REF_FRAME      = TEME
TIME_SYSTEM    = UTC
MEAN_ELEMENT_THEORY = SGP/SGP4

EPOCH          = 2026-03-02T12:12:35.467776
MEAN_MOTION    = 15.51667522
ECCENTRICITY   = .00076399
INCLINATION    = 51.6317
RA_OF_ASC_NODE = 107.4591
ARG_OF_PERICENTER = 126.6437
MEAN_ANOMALY   = 233.5256

EPHEMERIS_TYPE = 0
CLASSIFICATION_TYPE = U
NORAD_CAT_ID   = 67688
ELEMENT_SET_NO = 999
REV_AT_EPOCH   = 359
BSTAR          = .83945719E-3
MEAN_MOTION_DOT = .5075E-3
MEAN_MOTION_DDOT = 0

CCSDS_OMM_VERS = 2.0
CREATION_DATE  = 
ORIGINATOR     = 

OBJECT_NAME    = PRC TEST SPACECRAFT 4
OBJECT_ID      = 2026-024A
CENTER_NAME    = EARTH
REF_FRAME      = TEME
TIME_SYSTEM    = UTC
MEAN_ELEMENT_THEORY = SGP/SGP4

EPOCH          = 2026-03-03T04:42:37.144800
MEAN_MOTION    = 14.91681990
ECCENTRICITY   = .0006118
INCLINATION    = 49.9858
RA_OF_ASC_NODE = 53.2530
ARG_OF_PERICENTER = 335.1208
MEAN_ANOMALY   = 24.9438

EPHEMERIS_TYPE = 0
CLASSIFICATION_TYPE = U
NORAD_CAT_ID   = 67689
ELEMENT_SET_NO = 999
REV_AT_EPOCH   = 361
BSTAR          = .38581E-4
MEAN_MOTION_DOT = .148E-5
MEAN_MOTION_DDOT = 0

CCSDS_OMM_VERS = 2.0
CREATION_DATE  = 
ORIGINATOR     = 

OBJECT_NAME    = CZ-2F R/B
OBJECT_ID      = 2026-024B
CENTER_NAME    = EARTH
REF_FRAME      = TEME
TIME_SYSTEM    = UTC
MEAN_ELEMENT_THEORY = SGP/SGP4

EPOCH          = 2026-03-03T02:59:26.848320
MEAN_MOTION    = 15.34029038
ECCENTRICITY   = .0175112
INCLINATION    = 49.9874
RA_OF_ASC_NODE = 47.5182
ARG_OF_PERICENTER = 247.6669
MEAN_ANOMALY   = 110.5647

EPHEMERIS_TYPE = 0
CLASSIFICATION_TYPE = U
NORAD_CAT_ID   = 67690
ELEMENT_SET_NO = 999
REV_AT_EPOCH   = 368
BSTAR          = .3791E-3
MEAN_MOTION_DOT = .20613E-3
MEAN_MOTION_DDOT = 0

CCSDS_OMM_VERS = 2.0
CREATION_DATE  = 
ORIGINATOR     = 

OBJECT_NAME    = CZ-2F DEB
OBJECT_ID      = 2026-024C
CENTER_NAME    = EARTH
REF_FRAME      = TEME
TIME_SYSTEM    = UTC
MEAN_ELEMENT_THEORY = SGP/SGP4

EPOCH          = 2026-03-03T03:56:55.803264
MEAN_MOTION    = 15.92866426
ECCENTRICITY   = .0164358
INCLINATION    = 49.9036
RA_OF_ASC_NODE = 39.8819
ARG_OF_PERICENTER = 261.6013
MEAN_ANOMALY   = 96.6309

EPHEMERIS_TYPE = 0
CLASSIFICATION_TYPE = U
NORAD_CAT_ID   = 67691
ELEMENT_SET_NO = 999
REV_AT_EPOCH   = 377
BSTAR          = .76488E-3
MEAN_MOTION_DOT = .1101095E-1
MEAN_MOTION_DDOT = .10863E-4

CCSDS_OMM_VERS = 2.0
CREATION_DATE  = 
ORIGINATOR     = 

OBJECT_NAME    = CZ-2F DEB
OBJECT_ID      = 2026-024D
CENTER_NAME    = EARTH
REF_FRAME      = TEME
TIME_SYSTEM    = UTC
MEAN_ELEMENT_THEORY = SGP/SGP4

EPOCH          = 2026-03-03T04:25:57.664416
MEAN_MOTION    = 15.22537717
ECCENTRICITY   = .0241311
INCLINATION    = 50.3177
RA_OF_ASC_NODE = 50.6045
ARG_OF_PERICENTER = 254.4710
MEAN_ANOMALY   = 102.9490

EPHEMERIS_TYPE = 0
CLASSIFICATION_TYPE = U
NORAD_CAT_ID   = 67692
ELEMENT_SET_NO = 999
REV_AT_EPOCH   = 363
BSTAR          = .42106E-2
MEAN_MOTION_DOT = .232314E-2
MEAN_MOTION_DDOT = 0

CCSDS_OMM_VERS = 2.0
CREATION_DATE  = 
ORIGINATOR     = 

OBJECT_NAME    = STARLINK-36748
OBJECT_ID      = 2026-025A
CENTER_NAME    = EARTH
REF_FRAME      = TEME
TIME_SYSTEM    = UTC
MEAN_ELEMENT_THEORY = SGP/SGP4

EPOCH          = 2026-03-02T20:55:00.535872
MEAN_MOTION    = 15.75242960
ECCENTRICITY   = .0001449
INCLINATION    = 97.2847
RA_OF_ASC_NODE = 173.0670
ARG_OF_PERICENTER = 78.4582
MEAN_ANOMALY   = 281.6846

EPHEMERIS_TYPE = 0
CLASSIFICATION_TYPE = U
NORAD_CAT_ID   = 67693
ELEMENT_SET_NO = 999
REV_AT_EPOCH   = 486
BSTAR          = .13994E-2
MEAN_MOTION_DOT = .214417E-2
MEAN_MOTION_DDOT = 0

CCSDS_OMM_VERS = 2.0
CREATION_DATE  = 
ORIGINATOR     = 

OBJECT_NAME    = STARLINK-36753
OBJECT_ID      = 2026-025B
CENTER_NAME    = EARTH
REF_FRAME      = TEME
TIME_SYSTEM    = UTC
MEAN_ELEMENT_THEORY = SGP/SGP4

EPOCH          = 2026-03-02T20:43:49.664064
MEAN_MOTION    = 15.75239969
ECCENTRICITY   = .0000937
INCLINATION    = 97.2850
RA_OF_ASC_NODE = 173.0767
ARG_OF_PERICENTER = 93.0151
MEAN_ANOMALY   = 267.1221

EPHEMERIS_TYPE = 0
CLASSIFICATION_TYPE = U
NORAD_CAT_ID   = 67694
ELEMENT_SET_NO = 999
REV_AT_EPOCH   = 487
BSTAR          = .12892E-2
MEAN_MOTION_DOT = .197088E-2
MEAN_MOTION_DDOT = 0

CCSDS_OMM_VERS = 2.0
CREATION_DATE  = 
ORIGINATOR     = 

OBJECT_NAME    = STARLINK-36750
OBJECT_ID      = 2026-025C
CENTER_NAME    = EARTH
REF_FRAME      = TEME
TIME_SYSTEM    = UTC
MEAN_ELEMENT_THEORY = SGP/SGP4

EPOCH          = 2026-03-03T03:49:53.503392
MEAN_MOTION    = 15.80922967
ECCENTRICITY   = .0001341
INCLINATION    = 97.2842
RA_OF_ASC_NODE = 173.4408
ARG_OF_PERICENTER = 123.5724
MEAN_ANOMALY   = 236.5672

EPHEMERIS_TYPE = 0
CLASSIFICATION_TYPE = U
NORAD_CAT_ID   = 67695
ELEMENT_SET_NO = 999
REV_AT_EPOCH   = 491
BSTAR          = .13464E-2
MEAN_MOTION_DOT = .267116E-2
MEAN_MOTION_DDOT = 0

CCSDS_OMM_VERS = 2.0
CREATION_DATE  = 
ORIGINATOR     = 

OBJECT_NAME    = STARLINK-36401
OBJECT_ID      = 2026-025D
CENTER_NAME    = EARTH
REF_FRAME      = TEME
TIME_SYSTEM    = UTC
MEAN_ELEMENT_THEORY = SGP/SGP4

EPOCH          = 2026-03-03T04:00:01.999584
MEAN_MOTION    = 15.75136272
ECCENTRICITY   = .0001213
INCLINATION    = 97.2853
RA_OF_ASC_NODE = 173.4299
ARG_OF_PERICENTER = 75.7376
MEAN_ANOMALY   = 279.0083

EPHEMERIS_TYPE = 0
CLASSIFICATION_TYPE = U
NORAD_CAT_ID   = 67696
ELEMENT_SET_NO = 999
REV_AT_EPOCH   = 480
BSTAR          = .60291E-3
MEAN_MOTION_DOT = .90545E-3
MEAN_MOTION_DDOT = 0

